From:	Horizons Ephemeris System <horizons@ssd.jpl.nasa.gov>
Sent:	Friday, December 4, 2020 12:39 PM
Subject:	[Horizons] MAJOR BODY #C(usr={-90.,10.,.600^G}@301)_T(301) (1/1)

 Automated mail xmit by MAIL_REQUEST, PID= 2993 Fri Dec  4 10:39:19 2020
++++++++++++++++++++++++++++++++ (part 1 of 1)  +++++++++++++++++++++++++++++++
*******************************************************************************
 Revised: July 31, 2013             Moon / (Earth)                          301
 
 GEOPHYSICAL DATA (updated 2018-Aug-15):
  Vol. mean radius, km  = 1737.53+-0.03    Mass, x10^22 kg       =    7.349
  Radius (gravity), km  = 1738.0           Surface emissivity    =    0.92
  Radius (IAU), km      = 1737.4           GM, km^3/s^2          = 4902.800066
  Density, g/cm^3       =    3.3437        GM 1-sigma, km^3/s^2  =  +-0.0001  
  V(1,0)                =   +0.21          Surface accel., m/s^2 =    1.62
  Earth/Moon mass ratio = 81.3005690769    Farside crust. thick. = ~80 - 90 km
  Mean crustal density  = 2.97+-.07 g/cm^3 Nearside crust. thick.= 58+-8 km 
  Heat flow, Apollo 15  = 3.1+-.6 mW/m^2   Mean angular diameter = 31'05.2"
  Heat flow, Apollo 17  = 2.2+-.5 mW/m^2   Sid. rot. rate, rad/s = 0.0000026617
  Geometric Albedo      = 0.12             Mean solar day        = 29.5306 d
  Obliquity to orbit    = 6.67 deg         Orbit period          = 27.321582 d
  Semi-major axis, a    = 384400 km        Eccentricity          = 0.05490
  Mean motion, rad/s    = 2.6616995x10^-6  Inclination           = 5.145 deg
  Apsidal period        = 3231.50 d        Nodal period          = 6798.38 d
                                 Perihelion  Aphelion    Mean
  Solar Constant (W/m^2)         1414+-7     1323+-7     1368+-7
  Maximum Planetary IR (W/m^2)   1314        1226        1268
  Minimum Planetary IR (W/m^2)      5.2         5.2         5.2
********************************************************************************
 
 
*******************************************************************************
Ephemeris / MAIL_REQUEST Fri Dec  4 10:39:18 2020 Pasadena, USA  / Horizons
*******************************************************************************
Target body name: Moon (301)                      {source: DE431mx}
Center body name: Moon (301)                      {source: DE431mx}
Center-site name: (user defined site below)
*******************************************************************************
Start time      : A.D. 2020-Jan-01 00:00:00.0000 TDB
Stop  time      : A.D. 2039-Jan-01 00:00:00.0000 TDB
Step-size       : 10000 steps
*******************************************************************************
Center geodetic : 270.000000,10.0000000,0.6000000 {E-lon(deg),Lat(deg),Alt(km)}
Center cylindric: 270.000000,1711.59587,301.80053 {E-lon(deg),Dxy(km),Dz(km)}
Center pole/equ : IAU_MOON                        {East-longitude positive}
Center radii    : 1737.4 x 1737.4 x 1737.4 km     {Equator, meridian, pole}    
Output units    : KM-S
Output type     : GEOMETRIC cartesian states
Output format   : 3 (position, velocity, LT, range, range-rate)
Reference frame : Ecliptic of J2000.0
*******************************************************************************
JDTDB
   X     Y     Z
   VX    VY    VZ
   LT    RG    RR
*******************************************************************************
$$SOE
2459632.332000000 = A.D. 2022-Feb-21 19:58:04.8000 TDB 
  -1.091224187912107E+03  1.307893440106027E+03 -3.453817033995637E+02
  -3.493657236131463E-03 -2.924090276792886E-03 -3.484611615484643E-05
   5.797343974543884E-03  1.738000000000000E+03 -4.052345979554566E-19
2459633.026000001 = A.D. 2022-Feb-22 12:37:26.4000 TDB 
  -1.285867063667003E+03  1.116625923451251E+03 -3.468954333124663E+02
  -2.984810094742811E-03 -3.442028457460246E-03 -1.553555397084262E-05
   5.797343974543885E-03  1.738000000000000E+03  5.833980849875970E-19
2459633.720000000 = A.D. 2022-Feb-23 05:16:48.0000 TDB 
  -1.447654875514211E+03  8.968645248420167E+02 -3.472367858966572E+02
  -2.400114244549648E-03 -3.872477358804322E-03  4.174446967519438E-06
   5.797343974543886E-03  1.738000000000001E+03  4.251968934212425E-19
2459634.414000000 = A.D. 2022-Feb-23 21:56:09.6000 TDB 
  -1.572476432991258E+03  6.541949479248111E+02 -3.463969367600490E+02
  -1.754430532989410E-03 -4.204501777496265E-03  2.377863137080212E-05
   5.797343974543884E-03  1.738000000000000E+03  3.114118092662622E-19
2459635.108000000 = A.D. 2022-Feb-24 14:35:31.2000 TDB 
  -1.657160039654392E+03  3.947848338116710E+02 -3.443973547589291E+02
  -1.064168119712536E-03 -4.429667695961539E-03  4.277401689386758E-05
   5.797343974543886E-03  1.738000000000001E+03  2.874570547073189E-19
2459635.802000000 = A.D. 2022-Feb-25 07:14:52.8000 TDB 
  -1.699554006019332E+03  1.252270437273087E+02 -3.412892734074152E+02
  -3.468676653676021E-04 -4.542256079727304E-03  6.067295731476728E-05
   5.797343974543886E-03  1.738000000000000E+03  2.195852501236464E-20
2459636.496000000 = A.D. 2022-Feb-25 23:54:14.4000 TDB 
  -1.698581258152615E+03 -1.476278346915691E+02 -3.371523867288491E+02
   3.792440587577748E-04 -4.539407768644337E-03  7.701588426318388E-05
   5.797343974543885E-03  1.738000000000000E+03  1.217700023412948E-19
2459637.190000000 = A.D. 2022-Feb-26 16:33:36.0000 TDB 
  -1.654266663627277E+03 -4.168455080683418E+02 -3.320928003054651E+02
   1.095716860016087E-03 -4.421195837332311E-03  9.138334452159854E-05
   5.797343974543884E-03  1.738000000000000E+03  1.956304955647032E-19
2459637.884000001 = A.D. 2022-Feb-27 09:12:57.6000 TDB 
  -1.567736386983083E+03 -6.755841127820205E+02 -3.262402910214504E+02
   1.784345412399907E-03 -4.190623630059184E-03  1.034069613094336E-04
   5.797343974543886E-03  1.738000000000000E+03  4.910724684583366E-19
2459638.578000000 = A.D. 2022-Feb-28 01:52:19.2000 TDB 
  -1.441189293694065E+03 -9.172680014456907E+02 -3.197449503360942E+02
   2.427631315124116E-03 -3.853548543330480E-03  1.127789833224163E-04
   5.797343974543886E-03  1.738000000000000E+03  7.266275549546118E-19
2459639.272000000 = A.D. 2022-Feb-28 18:31:40.8000 TDB 
  -1.277841127402306E+03 -1.135754776853029E+03 -3.127733044470558E+02
   3.009227258023538E-03 -3.418533490024639E-03  1.192601433518624E-04
   5.797343974543886E-03  1.738000000000001E+03  5.110347639241225E-19
2459639.966000000 = A.D. 2022-Mar-01 11:11:02.4000 TDB 
  -1.081842872457192E+03 -1.325491340434666E+03 -3.055040191982512E+02
   3.514352080248169E-03 -2.896629787931513E-03  1.226856233351800E-04
   5.797343974543885E-03  1.738000000000000E+03 -1.169790514295062E-18
2459640.660000000 = A.D. 2022-Mar-02 03:50:24.0000 TDB 
  -8.581753658112308E+02 -1.481654998695289E+03 -2.981233073008946E+02
   3.930166232761035E-03 -2.301096931523726E-03  1.229690053682076E-04
   5.797343974543884E-03  1.738000000000000E+03 -9.182655914261579E-20
2459641.354000000 = A.D. 2022-Mar-02 20:29:45.6000 TDB 
  -6.125228231032804E+02 -1.600276046680550E+03 -2.908201602331909E+02
   4.246098136107474E-03 -1.647066289764230E-03  1.201041677254054E-04
   5.797343974543885E-03  1.738000000000000E+03 -2.714872183346901E-19
2459642.048000000 = A.D. 2022-Mar-03 13:09:07.2000 TDB 
  -3.511284785599942E+02 -1.678338713181178E+03 -2.837815275550745E+02
   4.454113141284921E-03 -9.511571885034637E-04  1.141651517334668E-04
   5.797343974543885E-03  1.738000000000000E+03  0.000000000000000E+00
2459642.742000000 = A.D. 2022-Mar-04 05:48:28.8000 TDB 
  -8.063599378708888E+01 -1.713857897046870E+03 -2.771875632780971E+02
   4.548918227457849E-03 -2.310550496515757E-04  1.053040736223745E-04
   5.797343974543885E-03  1.738000000000000E+03 -6.387934549051532E-20
2459643.436000000 = A.D. 2022-Mar-04 22:27:50.4000 TDB 
   1.920793450686257E+02 -1.705929734577605E+03 -2.712070535255159E+02
   4.528097174795809E-03  4.949377602950395E-04  9.374718451756692E-05
   5.797343974543885E-03  1.738000000000001E+03  1.397360682605022E-20
2459644.130000000 = A.D. 2022-Mar-05 15:07:12.0000 TDB 
   4.600853585707732E+02 -1.654754699644978E+03 -2.659931330535888E+02
   4.392172697623012E-03  1.208367000112429E-03  7.978919573996360E-05
   5.797343974543886E-03  1.738000000000001E+03 -1.097926250618232E-19
2459644.824000000 = A.D. 2022-Mar-06 07:46:33.6000 TDB 
   7.165691946800237E+02 -1.561632634641827E+03 -2.616793909677475E+02
   4.144593870899836E-03  1.891095733398681E-03  6.378599314767837E-05
   5.797343974543886E-03  1.738000000000001E+03  3.353665638252054E-19
2459645.518000000 = A.D. 2022-Mar-07 00:25:55.2000 TDB 
   9.550105568574600E+02 -1.428929824052498E+03 -2.583764583395778E+02
   3.791649085664154E-03  2.525765672294306E-03  4.614587209485763E-05
   5.797343974543885E-03  1.738000000000000E+03  5.329932889364872E-19
2459646.212000000 = A.D. 2022-Mar-07 17:05:16.8000 TDB 
   1.169347528961307E+03 -1.260018935135511E+03 -2.561691621020369E+02
   3.342306676876420E-03  3.096238910772087E-03  2.731944119547126E-05
   5.797343974543884E-03  1.738000000000000E+03 -2.086059876174641E-19
2459646.906000000 = A.D. 2022-Mar-08 09:44:38.4000 TDB 
   1.354130771043352E+03 -1.059193343398702E+03 -2.551143198909425E+02
   2.807987228689356E-03  3.588008751466239E-03  7.788372900912948E-06
   5.797343974543883E-03  1.738000000000000E+03  1.023067642621535E-20
2459647.600000000 = A.D. 2022-Mar-09 02:24:00.0000 TDB 
   1.504662153776280E+03 -8.315580160627187E+02 -2.552392385883535E+02
   2.202273326298461E-03  3.988569106099710E-03 -1.194677770508640E-05
   5.797343974543885E-03  1.738000000000000E+03  2.021182415910836E-19
2459648.294000000 = A.D. 2022-Mar-09 19:03:21.6000 TDB 
   1.617114294525054E+03 -5.828997272101110E+02 -2.565409644893342E+02
   1.540564140999236E-03  4.287733004238495E-03 -3.137941144744100E-05
   5.797343974543886E-03  1.738000000000001E+03  4.511478775267644E-19
